[{"OBJECT_NAME":"STARLINK-5166","OBJECT_ID":"2022-136AL","EPOCH":"2026-03-09T21:20:14.836704","MEAN_MOTION":15.08860719,"ECCENTRICITY":0.00012071,"INCLINATION":53.2185,"RA_OF_ASC_NODE":333.2592,"ARG_OF_PERICENTER":90.1268,"MEAN_ANOMALY":269.9862,"EPHEMERIS_TYPE":0,"CLASSIFICATION_TYPE":"U","NORAD_CAT_ID":54085,"ELEMENT_SET_NO":999,"REV_AT_EPOCH":18701,"BSTAR":-0.00022636911,"MEAN_MOTION_DOT":-3.891e-5,"MEAN_MOTION_DDOT":0},{"OBJECT_NAME":"LEMUR-2-LLOYD","OBJECT_ID":"2024-149DP","EPOCH":"2026-03-09T11:02:25.245024","MEAN_MOTION":15.07168338,"ECCENTRICITY":0.00051866,"INCLINATION":97.678,"RA_OF_ASC_NODE":149.6779,"ARG_OF_PERICENTER":125.6096,"MEAN_ANOMALY":234.5616,"EPHEMERIS_TYPE":0,"CLASSIFICATION_TYPE":"U","NORAD_CAT_ID":60577,"ELEMENT_SET_NO":999,"REV_AT_EPOCH":8536,"BSTAR":0.00080142638,"MEAN_MOTION_DOT":0.00012007,"MEAN_MOTION_DDOT":0}]
